start=new Date('2022-06-06T00:00:00.000Z').valueOf();
sats=[{"COUNTRY_CODE":"US","CENTER_NAME":"EARTH","ARG_OF_PERICENTER":"56.6382","SITE":"AFETR","TIME_SYSTEM":"UTC","CLASSIFICATION_TYPE":"U","OBJECT_NAME":"STARLINK-2399","RA_OF_ASC_NODE":"294.7179","OBJECT_TYPE":"PAYLOAD","ELEMENT_SET_NO":"999","GP_ID":"205446429","APOAPSIS":"548.245","ECCENTRICITY":"0.00014930","EPOCH":"2022-06-05T19:26:28.121280","OBJECT_ID":"2021-018AF","PERIAPSIS":"546.177","MEAN_ANOMALY":"303.4750","SEMIMAJOR_AXIS":"6925.346","MEAN_MOTION_DOT":"0.00000554","EPHEMERIS_TYPE":"0","NORAD_CAT_ID":"47816","BSTAR":"0.00005607400000","LAUNCH_DATE":"2021-03-11","REF_FRAME":"TEME","PERIOD":"95.592","REV_AT_EPOCH":"6966","MEAN_MOTION_DDOT":"0.0000000000000","FILE":"3482995","RCS_SIZE":"LARGE","INCLINATION":"53.0551","TLE_LINE2":"2 47816  53.0551 294.7179 0001493  56.6382 303.4750 15.06400952 69664","TLE_LINE1":"1 47816U 21018AF  22156.81004770  .00000554  00000-0  56074-4 0  9991","MEAN_MOTION":"15.06400952","MEAN_ELEMENT_THEORY":"SGP4","DECAY_DATE":null},{"BSTAR":"0.00006936600000","NORAD_CAT_ID":"47817","EPHEMERIS_TYPE":"0","MEAN_MOTION_DOT":"0.00000752","SEMIMAJOR_AXIS":"6925.373","MEAN_ANOMALY":"270.0006","OBJECT_ID":"2021-018AG","PERIAPSIS":"546.464","DECAY_DATE":null,"MEAN_ELEMENT_THEORY":"SGP4","TLE_LINE1":"1 47817U 21018AG  22156.82847981  .00000752  00000-0  69366-4 0  9990","MEAN_MOTION":"15.06392021","TLE_LINE2":"2 47817  53.0562 294.6449 0001117  90.1111 270.0006 15.06392021 69336","INCLINATION":"53.0562","RCS_SIZE":"LARGE","FILE":"3482658","REV_AT_EPOCH":"6933","MEAN_MOTION_DDOT":"0.0000000000000","PERIOD":"95.593","REF_FRAME":"TEME","LAUNCH_DATE":"2021-03-11","RA_OF_ASC_NODE":"294.6449","OBJECT_TYPE":"PAYLOAD","OBJECT_NAME":"STARLINK-2400","CLASSIFICATION_TYPE":"U","TIME_SYSTEM":"UTC","SITE":"AFETR","ARG_OF_PERICENTER":"90.1111","CENTER_NAME":"EARTH","COUNTRY_CODE":"US","EPOCH":"2022-06-05T19:53:00.655584","APOAPSIS":"548.012","ECCENTRICITY":"0.00011170","GP_ID":"205416328","ELEMENT_SET_NO":"999"},{"ELEMENT_SET_NO":"999","GP_ID":"205445428","APOAPSIS":"548.183","ECCENTRICITY":"0.00013890","EPOCH":"2022-06-05T18:56:37.218624","COUNTRY_CODE":"US","CENTER_NAME":"EARTH","ARG_OF_PERICENTER":"68.0124","SITE":"AFETR","TIME_SYSTEM":"UTC","CLASSIFICATION_TYPE":"U","OBJECT_TYPE":"PAYLOAD","RA_OF_ASC_NODE":"299.8101","OBJECT_NAME":"STARLINK-2401","REF_FRAME":"TEME","LAUNCH_DATE":"2021-03-11","PERIOD":"95.592","MEAN_MOTION_DDOT":"0.0000000000000","REV_AT_EPOCH":"6959","RCS_SIZE":"LARGE","FILE":"3482995","TLE_LINE2":"2 47818  53.0540 299.8101 0001389  68.0124 292.1012 15.06397536 69590","INCLINATION":"53.0540","MEAN_ELEMENT_THEORY":"SGP4","TLE_LINE1":"1 47818U 21018AH  22156.78931966  .00000437  00000-0  48261-4 0  9994","MEAN_MOTION":"15.06397536","DECAY_DATE":null,"PERIAPSIS":"546.259","OBJECT_ID":"2021-018AH","MEAN_ANOMALY":"292.1012","SEMIMAJOR_AXIS":"6925.356","EPHEMERIS_TYPE":"0","MEAN_MOTION_DOT":"0.00000437","BSTAR":"0.00004826100000","NORAD_CAT_ID":"47818"},{"PERIOD":"95.558","REF_FRAME":"TEME","LAUNCH_DATE":"2021-03-11","RCS_SIZE":"LARGE","FILE":"3482995","REV_AT_EPOCH":"6974","MEAN_MOTION_DDOT":"0.0000000000000","TLE_LINE2":"2 47819  53.0546 294.3144 0001364 194.7017 165.3933 15.06937310 69745","INCLINATION":"53.0546","DECAY_DATE":null,"MEAN_ELEMENT_THEORY":"SGP4","MEAN_MOTION":"15.06937310","TLE_LINE1":"1 47819U 21018AJ  22156.89768672  .00049371  00000-0  32626-2 0  9995","PERIAPSIS":"544.623","OBJECT_ID":"2021-018AJ","SEMIMAJOR_AXIS":"6923.702","MEAN_ANOMALY":"165.3933","BSTAR":"0.00326260000000","NORAD_CAT_ID":"47819","EPHEMERIS_TYPE":"0","MEAN_MOTION_DOT":"0.00049371","ELEMENT_SET_NO":"999","ECCENTRICITY":"0.00013640","APOAPSIS":"546.512","GP_ID":"205446678","EPOCH":"2022-06-05T21:32:40.132608","CENTER_NAME":"EARTH","COUNTRY_CODE":"US","ARG_OF_PERICENTER":"194.7017","TIME_SYSTEM":"UTC","SITE":"AFETR","RA_OF_ASC_NODE":"294.3144","OBJECT_TYPE":"PAYLOAD","OBJECT_NAME":"STARLINK-2402","CLASSIFICATION_TYPE":"U"},{"MEAN_MOTION_DOT":"0.00000859","EPHEMERIS_TYPE":"0","NORAD_CAT_ID":"47820","BSTAR":"0.00007652500000","MEAN_ANOMALY":"305.2142","SEMIMAJOR_AXIS":"6925.331","OBJECT_ID":"2021-018AK","PERIAPSIS":"546.228","MEAN_MOTION":"15.06405606","TLE_LINE1":"1 47820U 21018AK  22156.81281035  .00000859  00000-0  76525-4 0  9998","MEAN_ELEMENT_THEORY":"SGP4","DECAY_DATE":null,"INCLINATION":"53.0564","TLE_LINE2":"2 47820  53.0564 304.7136 0001399  54.8978 305.2142 15.06405606 69581","REV_AT_EPOCH":"6958","MEAN_MOTION_DDOT":"0.0000000000000","FILE":"3482995","RCS_SIZE":"LARGE","LAUNCH_DATE":"2021-03-11","REF_FRAME":"TEME","PERIOD":"95.592","CLASSIFICATION_TYPE":"U","OBJECT_NAME":"STARLINK-2403","RA_OF_ASC_NODE":"304.7136","OBJECT_TYPE":"PAYLOAD","SITE":"AFETR","TIME_SYSTEM":"UTC","ARG_OF_PERICENTER":"54.8978","COUNTRY_CODE":"US","CENTER_NAME":"EARTH","EPOCH":"2022-06-05T19:30:26.814240","GP_ID":"205446929","APOAPSIS":"548.165","ECCENTRICITY":"0.00013990","ELEMENT_SET_NO":"999"},{"ELEMENT_SET_NO":"999","GP_ID":"205445678","ECCENTRICITY":"0.00014060","APOAPSIS":"548.186","EPOCH":"2022-06-05T20:35:28.204512","COUNTRY_CODE":"US","CENTER_NAME":"EARTH","ARG_OF_PERICENTER":"94.7540","SITE":"AFETR","TIME_SYSTEM":"UTC","CLASSIFICATION_TYPE":"U","RA_OF_ASC_NODE":"294.5114","OBJECT_TYPE":"PAYLOAD","OBJECT_NAME":"STARLINK-2406","REF_FRAME":"TEME","LAUNCH_DATE":"2021-03-11","PERIOD":"95.592","REV_AT_EPOCH":"6967","MEAN_MOTION_DDOT":"0.0000000000000","RCS_SIZE":"LARGE","FILE":"3482995","TLE_LINE2":"2 47821  53.0560 294.5114 0001406  94.7540 265.3609 15.06400314 69672","INCLINATION":"53.0560","MEAN_ELEMENT_THEORY":"SGP4","MEAN_MOTION":"15.06400314","TLE_LINE1":"1 47821U 21018AL  22156.85796533  .00000496  00000-0  52188-4 0  9993","DECAY_DATE":null,"PERIAPSIS":"546.239","OBJECT_ID":"2021-018AL","MEAN_ANOMALY":"265.3609","SEMIMAJOR_AXIS":"6925.348","MEAN_MOTION_DOT":"0.00000496","EPHEMERIS_TYPE":"0","BSTAR":"0.00005218800000","NORAD_CAT_ID":"47821"},{"PERIAPSIS":"546.123","OBJECT_ID":"2021-018AM","MEAN_ANOMALY":"307.8571","SEMIMAJOR_AXIS":"6925.360","EPHEMERIS_TYPE":"0","MEAN_MOTION_DOT":"0.00001356","NORAD_CAT_ID":"47822","BSTAR":"0.00010992000000","LAUNCH_DATE":"2021-03-11","REF_FRAME":"TEME","PERIOD":"95.592","MEAN_MOTION_DDOT":"0.0000000000000","REV_AT_EPOCH":"6953","FILE":"3482995","RCS_SIZE":"LARGE","INCLINATION":"53.0552","TLE_LINE2":"2 47822  53.0552 304.7480 0001591  52.2562 307.8571 15.06396424 69533","TLE_LINE1":"1 47822U 21018AM  22156.80081213  .00001356  00000-0  10992-3 0  9993","MEAN_MOTION":"15.06396424","MEAN_ELEMENT_THEORY":"SGP4","DECAY_DATE":null,"COUNTRY_CODE":"US","CENTER_NAME":"EARTH","ARG_OF_PERICENTER":"52.2562","SITE":"AFETR","TIME_SYSTEM":"UTC","CLASSIFICATION_TYPE":"U","OBJECT_NAME":"STARLINK-2407","RA_OF_ASC_NODE":"304.7480","OBJECT_TYPE":"PAYLOAD","ELEMENT_SET_NO":"999","GP_ID":"205445928","APOAPSIS":"548.326","ECCENTRICITY":"0.00015910","EPOCH":"2022-06-05T19:13:10.168032"},{"COUNTRY_CODE":"US","CENTER_NAME":"EARTH","ARG_OF_PERICENTER":"68.5352","SITE":"AFETR","TIME_SYSTEM":"UTC","CLASSIFICATION_TYPE":"U","OBJECT_NAME":"STARLINK-2408","RA_OF_ASC_NODE":"295.2879","OBJECT_TYPE":"PAYLOAD","ELEMENT_SET_NO":"999","GP_ID":"205446180","ECCENTRICITY":"0.00017120","APOAPSIS":"548.442","EPOCH":"2022-06-05T16:26:01.024512","PERIAPSIS":"546.071","OBJECT_ID":"2021-018AN","MEAN_ANOMALY":"291.5819","SEMIMAJOR_AXIS":"6925.392","EPHEMERIS_TYPE":"0","MEAN_MOTION_DOT":"0.00000664","NORAD_CAT_ID":"47823","BSTAR":"0.00006352300000","LAUNCH_DATE":"2021-03-11","REF_FRAME":"TEME","PERIOD":"95.593","MEAN_MOTION_DDOT":"0.0000000000000","REV_AT_EPOCH":"6965","FILE":"3482995","RCS_SIZE":"LARGE","INCLINATION":"53.0555","TLE_LINE2":"2 47823  53.0555 295.2879 0001712  68.5352 291.5819 15.06385874 69659","MEAN_MOTION":"15.06385874","TLE_LINE1":"1 47823U 21018AN  22156.68473408  .00000664  00000-0  63523-4 0  9991","MEAN_ELEMENT_THEORY":"SGP4","DECAY_DATE":null},{"CLASSIFICATION_TYPE":"U","OBJECT_NAME":"STARLINK-2409","OBJECT_TYPE":"PAYLOAD","RA_OF_ASC_NODE":"295.3333","SITE":"AFETR","TIME_SYSTEM":"UTC","ARG_OF_PERICENTER":"73.3876","COUNTRY_CODE":"US","CENTER_NAME":"EARTH","EPOCH":"2022-06-05T16:10:05.197728","GP_ID":"205446430","APOAPSIS":"548.411","ECCENTRICITY":"0.00017210","ELEMENT_SET_NO":"999","MEAN_MOTION_DOT":"0.00000359","EPHEMERIS_TYPE":"0","NORAD_CAT_ID":"47824","BSTAR":"0.00004298900000","MEAN_ANOMALY":"286.7302","SEMIMAJOR_AXIS":"6925.354","PERIAPSIS":"546.027","OBJECT_ID":"2021-018AP","TLE_LINE1":"1 47824U 21018AP  22156.67367127  .00000359  00000-0  42989-4 0  9995","MEAN_MOTION":"15.06398227","MEAN_ELEMENT_THEORY":"SGP4","DECAY_DATE":null,"INCLINATION":"53.0550","TLE_LINE2":"2 47824  53.0550 295.3333 0001721  73.3876 286.7302 15.06398227 69644","REV_AT_EPOCH":"6964","MEAN_MOTION_DDOT":"0.0000000000000","FILE":"3482995","RCS_SIZE":"LARGE","LAUNCH_DATE":"2021-03-11","REF_FRAME":"TEME","PERIOD":"95.592"},{"BSTAR":"0.00011124000000","NORAD_CAT_ID":"47825","MEAN_MOTION_DOT":"0.00001376","EPHEMERIS_TYPE":"0","PERIAPSIS":"546.172","OBJECT_ID":"2021-018AQ","SEMIMAJOR_AXIS":"6925.325","MEAN_ANOMALY":"292.1955","TLE_LINE2":"2 47825  53.0559 294.6556 0001470  67.9190 292.1955 15.06407726 69675","INCLINATION":"53.0559","DECAY_DATE":null,"MEAN_ELEMENT_THEORY":"SGP4","MEAN_MOTION":"15.06407726","TLE_LINE1":"1 47825U 21018AQ  22156.82478580  .00001376  00000-0  11124-3 0  9995","PERIOD":"95.592","REF_FRAME":"TEME","LAUNCH_DATE":"2021-03-11","RCS_SIZE":"LARGE","FILE":"3482995","MEAN_MOTION_DDOT":"0.0000000000000","REV_AT_EPOCH":"6967","TIME_SYSTEM":"UTC","SITE":"AFETR","OBJECT_TYPE":"PAYLOAD","RA_OF_ASC_NODE":"294.6556","OBJECT_NAME":"STARLINK-2410","CLASSIFICATION_TYPE":"U","CENTER_NAME":"EARTH","COUNTRY_CODE":"US","ARG_OF_PERICENTER":"67.9190","EPOCH":"2022-06-05T19:47:41.493120","ELEMENT_SET_NO":"999","APOAPSIS":"548.208","ECCENTRICITY":"0.00014700","GP_ID":"205445179"}];
